{"type": "FeatureCollection", "features": [ {"type": "Feature", "properties": {"norad_id": 43010, "name": "FENGYUN 3D", "group": "weather", "lat": 76.89119799127008, "lon": -178.8884537713297, "alt_km": 818.8033475603197, "timestamp": "2025-12-17T21:39:45.355371+00:00", "meta": {"OBJECT_NAME": "FENGYUN 3D", "OBJECT_ID": "2017-072A", "EPOCH": "2025-12-17T14:25:46.188192", "MEAN_MOTION": 14.19686227, "ECCENTRICITY": 0.00011713, "INCLINATION": 98.9888, "RA_OF_ASC_NODE": 317.9843, "ARG_OF_PERICENTER": 167.1115, "MEAN_ANOMALY": 193.0091, "EPHEMERIS_TYPE": 0, "CLASSIFICATION_TYPE": "U", "NORAD_CAT_ID": 43010, "ELEMENT_SET_NO": 999, "REV_AT_EPOCH": 41922, "BSTAR": 0.00015056881, "MEAN_MOTION_DOT": 2.72e-06, "MEAN_MOTION_DDOT": 0}, "tle": {"line1": "1 43010U 17072A   25351.60122903  .00000272  00000+0  15057-3 0  9995", "line2": "2 43010  98.9888 317.9843 0001171 167.1115 193.0091 14.19686227419224"}}, "geometry": {"type": "Point", "coordinates": [-178.8884537713297, 76.89119799127008]}}, {"type": "Feature", "properties": {"norad_id": 43013, "name": "NOAA 20 (JPSS-1)", "group": "weather", "lat": -67.24108516591032, "lon": 86.57756721721024, "alt_km": 835.6912289553948, "timestamp": "2025-12-17T21:39:45.355381+00:00", "meta": {"OBJECT_NAME": "NOAA 20 (JPSS-1)", "OBJECT_ID": "2017-073A", "EPOCH": "2025-12-17T13:43:38.016192", "MEAN_MOTION": 14.19527034, "ECCENTRICITY": 0.00021448, "INCLINATION": 98.7604, "RA_OF_ASC_NODE": 287.8159, "ARG_OF_PERICENTER": 80.2569, "MEAN_ANOMALY": 279.8849, "EPHEMERIS_TYPE": 0, "CLASSIFICATION_TYPE": "U", "NORAD_CAT_ID": 43013, "ELEMENT_SET_NO": 999, "REV_AT_EPOCH": 41870, "BSTAR": 5.7720213e-05, "MEAN_MOTION_DOT": 7.8e-07, "MEAN_MOTION_DDOT": 0}, "tle": {"line1": "1 43013U 17073A   25351.57196778  .00000078  00000+0  57720-4 0  9994", "line2": "2 43013  98.7604 287.8159 0002144  80.2569 279.8849 14.19527034418701"}}, "geometry": {"type": "Point", "coordinates": [86.57756721721024, -67.24108516591032]}}, {"type": "Feature", "properties": {"norad_id": 43226, "name": "GOES 17", "group": "weather", "lat": -0.38652473420698796, "lon": -37.774961046140376, "alt_km": 35776.662513861236, "timestamp": "2025-12-17T21:39:45.355392+00:00", "meta": {"OBJECT_NAME": "GOES 17", "OBJECT_ID": "2018-022A", "EPOCH": "2025-12-17T12:54:02.489184", "MEAN_MOTION": 1.00271188, "ECCENTRICITY": 0.00030915, "INCLINATION": 0.4704, "RA_OF_ASC_NODE": 89.1525, "ARG_OF_PERICENTER": 190.7991, "MEAN_ANOMALY": 270.4737, "EPHEMERIS_TYPE": 0, "CLASSIFICATION_TYPE": "U", "NORAD_CAT_ID": 43226, "ELEMENT_SET_NO": 999, "REV_AT_EPOCH": 2860, "BSTAR": 0, "MEAN_MOTION_DOT": -1.58e-06, "MEAN_MOTION_DDOT": 0}, "tle": {"line1": "1 43226U 18022A   25351.53752881 -.00000158  00000+0  00000+0 0  9998", "line2": "2 43226   0.4704  89.1525 0003091 190.7991 270.4737  1.00271188 28607"}}, "geometry": {"type": "Point", "coordinates": [-37.774961046140376, -0.38652473420698796]}}, {"type": "Feature", "properties": {"norad_id": 43491, "name": "FENGYUN 2H", "group": "weather", "lat": 1.9730777357249747, "lon": 131.004277188551, "alt_km": 35790.61244249943, "timestamp": "2025-12-17T21:39:45.355411+00:00", "meta": {"OBJECT_NAME": "FENGYUN 2H", "OBJECT_ID": "2018-050A", "EPOCH": "2025-12-17T15:24:55.539936", "MEAN_MOTION": 1.00271338, "ECCENTRICITY": 0.0002456, "INCLINATION": 2.5632, "RA_OF_ASC_NODE": 81.2773, "ARG_OF_PERICENTER": 166.1771, "MEAN_ANOMALY": 149.648, "EPHEMERIS_TYPE": 0, "CLASSIFICATION_TYPE": "U", "NORAD_CAT_ID": 43491, "ELEMENT_SET_NO": 999, "REV_AT_EPOCH": 2761, "BSTAR": 0, "MEAN_MOTION_DOT": -1.07e-06, "MEAN_MOTION_DDOT": 0}, "tle": {"line1": "1 43491U 18050A   25351.64230949 -.00000107  00000+0  00000+0 0  9995", "line2": "2 43491   2.5632  81.2773 0002456 166.1771 149.6480  1.00271338 27618"}}, "geometry": {"type": "Point", "coordinates": [131.004277188551, 1.9730777357249747]}}, {"type": "Feature", "properties": {"norad_id": 43689, "name": "METOP-C", "group": "weather", "lat": 64.71869686799097, "lon": 30.693326008790088, "alt_km": 813.3998859411204, "timestamp": "2025-12-17T21:39:45.355421+00:00", "meta": {"OBJECT_NAME": "METOP-C", "OBJECT_ID": "2018-087A", "EPOCH": "2025-12-17T14:35:42.705024", "MEAN_MOTION": 14.21486248, "ECCENTRICITY": 0.00010135, "INCLINATION": 98.6924, "RA_OF_ASC_NODE": 49.3031, "ARG_OF_PERICENTER": 30.4871, "MEAN_ANOMALY": 329.6365, "EPHEMERIS_TYPE": 0, "CLASSIFICATION_TYPE": "U", "NORAD_CAT_ID": 43689, "ELEMENT_SET_NO": 999, "REV_AT_EPOCH": 36903, "BSTAR": 7.5408833e-05, "MEAN_MOTION_DOT": 1.21e-06, "MEAN_MOTION_DDOT": 0}, "tle": {"line1": "1 43689U 18087A   25351.60813316  .00000121  00000+0  75409-4 0  9990", "line2": "2 43689  98.6924  49.3031 0001013  30.4871 329.6365 14.21486248369033"}}, "geometry": {"type": "Point", "coordinates": [30.693326008790088, 64.71869686799097]}}, {"type": "Feature", "properties": {"norad_id": 43823, "name": "GEO-KOMPSAT-2A", "group": "weather", "lat": 0.029476703521949747, "lon": 179.9811008124422, "alt_km": 35785.83179556866, "timestamp": "2025-12-17T21:39:45.355433+00:00", "meta": {"OBJECT_NAME": "GEO-KOMPSAT-2A", "OBJECT_ID": "2018-100A", "EPOCH": "2025-12-16T07:07:06.206304", "MEAN_MOTION": 1.00271835, "ECCENTRICITY": 4.993e-05, "INCLINATION": 0.0508, "RA_OF_ASC_NODE": 132.3973, "ARG_OF_PERICENTER": 330.4458, "MEAN_ANOMALY": 217.3998, "EPHEMERIS_TYPE": 0, "CLASSIFICATION_TYPE": "U", "NORAD_CAT_ID": 43823, "ELEMENT_SET_NO": 999, "REV_AT_EPOCH": 2579, "BSTAR": 0, "MEAN_MOTION_DOT": -3.2e-06, "MEAN_MOTION_DDOT": 0}, "tle": {"line1": "1 43823U 18100A   25350.29659961 -.00000320  00000+0  00000+0 0  9996", "line2": "2 43823   0.0508 132.3973 0000499 330.4458 217.3998  1.00271835 25791"}}, "geometry": {"type": "Point", "coordinates": [179.9811008124422, 0.029476703521949747]}}, {"type": "Feature", "properties": {"norad_id": 44387, "name": "METEOR-M2 2", "group": "weather", "lat": -12.455009841013549, "lon": 149.7120353220878, "alt_km": 814.6810394345312, "timestamp": "2025-12-17T21:39:45.355443+00:00", "meta": {"OBJECT_NAME": "METEOR-M2 2", "OBJECT_ID": "2019-038A", "EPOCH": "2025-12-17T15:42:13.621248", "MEAN_MOTION": 14.24293287, "ECCENTRICITY": 0.00014437, "INCLINATION": 98.8968, "RA_OF_ASC_NODE": 331.4434, "ARG_OF_PERICENTER": 136.8036, "MEAN_ANOMALY": 223.3256, "EPHEMERIS_TYPE": 0, "CLASSIFICATION_TYPE": "U", "NORAD_CAT_ID": 44387, "ELEMENT_SET_NO": 999, "REV_AT_EPOCH": 33545, "BSTAR": 4.6509628e-05, "MEAN_MOTION_DOT": 6.2e-07, "MEAN_MOTION_DDOT": 0}, "tle": {"line1": "1 44387U 19038A   25351.65432432  .00000062  00000+0  46510-4 0  9999", "line2": "2 44387  98.8968 331.4434 0001443 136.8036 223.3256 14.24293287335452"}}, "geometry": {"type": "Point", "coordinates": [149.7120353220878, -12.455009841013549]}}, {"type": "Feature", "properties": {"norad_id": 47719, "name": "ARKTIKA-M 1", "group": "weather", "lat": 56.52290809741145, "lon": -146.484027636827, "alt_km": 32232.428960659166, "timestamp": "2025-12-17T21:39:45.355455+00:00", "meta": {"OBJECT_NAME": "ARKTIKA-M 1", "OBJECT_ID": "2021-016A", "EPOCH": "2025-12-16T01:33:46.454400", "MEAN_MOTION": 2.00630649, "ECCENTRICITY": 0.72056757, "INCLINATION": 63.179, "RA_OF_ASC_NODE": 83.5626, "ARG_OF_PERICENTER": 269.1378, "MEAN_ANOMALY": 15.5886, "EPHEMERIS_TYPE": 0, "CLASSIFICATION_TYPE": "U", "NORAD_CAT_ID": 47719, "ELEMENT_SET_NO": 999, "REV_AT_EPOCH": 3511, "BSTAR": 0, "MEAN_MOTION_DOT": -1.08e-06, "MEAN_MOTION_DDOT": 0}, "tle": {"line1": "1 47719U 21016A   25350.06512100 -.00000108  00000+0  00000+0 0  9996", "line2": "2 47719  63.1790  83.5626 7205675 269.1378  15.5886  2.00630649 35117"}}, "geometry": {"type": "Point", "coordinates": [-146.484027636827, 56.52290809741145]}}, {"type": "Feature", "properties": {"norad_id": 49008, "name": "FENGYUN 3E", "group": "weather", "lat": 68.01971898931464, "lon": -30.060955744803547, "alt_km": 819.5366322060909, "timestamp": "2025-12-17T21:39:45.355465+00:00", "meta": {"OBJECT_NAME": "FENGYUN 3E", "OBJECT_ID": "2021-062A", "EPOCH": "2025-12-17T14:34:13.041696", "MEAN_MOTION": 14.19880947, "ECCENTRICITY": 6.338e-05, "INCLINATION": 98.7473, "RA_OF_ASC_NODE": 352.0708, "ARG_OF_PERICENTER": 231.2335, "MEAN_ANOMALY": 128.8785, "EPHEMERIS_TYPE": 0, "CLASSIFICATION_TYPE": "U", "NORAD_CAT_ID": 49008, "ELEMENT_SET_NO": 999, "REV_AT_EPOCH": 23081, "BSTAR": 4.4848022e-05, "MEAN_MOTION_DOT": 5.1e-07, "MEAN_MOTION_DDOT": 0}, "tle": {"line1": "1 49008U 21062A   25351.60709539  .00000051  00000+0  44848-4 0  9994", "line2": "2 49008  98.7473 352.0708 0000633 231.2335 128.8785 14.19880947230811"}}, "geometry": {"type": "Point", "coordinates": [-30.060955744803547, 68.01971898931464]}}, {"type": "Feature", "properties": {"norad_id": 51850, "name": "GOES 18", "group": "weather", "lat": 0.006284085753388917, "lon": -85.30281729314522, "alt_km": 35784.87406347777, "timestamp": "2025-12-17T21:39:45.355475+00:00", "meta": {"OBJECT_NAME": "GOES 18", "OBJECT_ID": "2022-021A", "EPOCH": "2025-12-17T12:15:24.681312", "MEAN_MOTION": 1.00272194, "ECCENTRICITY": 4.602e-05, "INCLINATION": 0.0197, "RA_OF_ASC_NODE": 166.5725, "ARG_OF_PERICENTER": 165.1996, "MEAN_ANOMALY": 161.4683, "EPHEMERIS_TYPE": 0, "CLASSIFICATION_TYPE": "U", "NORAD_CAT_ID": 51850, "ELEMENT_SET_NO": 999, "REV_AT_EPOCH": 477, "BSTAR": 0, "MEAN_MOTION_DOT": 1.21e-06, "MEAN_MOTION_DDOT": 0}, "tle": {"line1": "1 51850U 22021A   25351.51070233  .00000121  00000+0  00000+0 0  9995", "line2": "2 51850   0.0197 166.5725 0000460 165.1996 161.4683  1.00272194  4770"}}, "geometry": {"type": "Point", "coordinates": [-85.30281729314522, 0.006284085753388917]}}]}